{
  "type": "FeatureCollection",
  "features": [
    {
      "type": "Feature",
      "properties": {
        "norad_id": 24876,
        "name": "GPS BIIR-2  (PRN 13)",
        "group": "gnss",
        "lat": -15.426305947225982,
        "lon": 94.5441986547841,
        "alt_km": 20118.245332051873,
        "timestamp": "2025-12-27T03:58:44.397380+00:00",
        "meta_object_name": "GPS BIIR-2  (PRN 13)",
        "meta_object_id": "1997-035A",
        "meta_epoch": "2025-12-25T04:43:59.116800",
        "meta_mean_motion": 2.00563692,
        "meta_eccentricity": 0.0096849,
        "meta_inclination": 55.901,
        "meta_ra_of_asc_node": 105.3817,
        "meta_arg_of_pericenter": 56.9385,
        "meta_mean_anomaly": 303.9881,
        "meta_ephemeris_type": 0,
        "meta_classification_type": "U",
        "meta_norad_cat_id": 24876,
        "meta_element_set_no": 999,
        "meta_rev_at_epoch": 20846,
        "meta_bstar": 0,
        "meta_mean_motion_dot": 2.8e-07,
        "meta_mean_motion_ddot": 0,
        "tle_line1": "1 24876U 97035A   25359.19721200  .00000028  00000+0  00000+0 0  9995",
        "tle_line2": "2 24876  55.9010 105.3817 0096849  56.9385 303.9881  2.00563692208461"
      },
      "geometry": {
        "type": "Point",
        "coordinates": [
          94.5441986547841,
          -15.426305947225982
        ]
      }
    },
    {
      "type": "Feature",
      "properties": {
        "norad_id": 26360,
        "name": "GPS BIIR-4  (PRN 20)",
        "group": "gnss",
        "lat": 52.103645559827996,
        "lon": 90.1746403355464,
        "alt_km": 20277.416184948786,
        "timestamp": "2025-12-27T03:58:44.397426+00:00",
        "meta_object_name": "GPS BIIR-4  (PRN 20)",
        "meta_object_id": "2000-025A",
        "meta_epoch": "2025-12-26T15:26:17.637216",
        "meta_mean_motion": 2.00566407,
        "meta_eccentricity": 0.0038896,
        "meta_inclination": 55.0535,
        "meta_ra_of_asc_node": 26.2756,
        "meta_arg_of_pericenter": 243.3079,
        "meta_mean_anomaly": 173.8394,
        "meta_ephemeris_type": 0,
        "meta_classification_type": "U",
        "meta_norad_cat_id": 26360,
        "meta_element_set_no": 999,
        "meta_rev_at_epoch": 18781,
        "meta_bstar": 0,
        "meta_mean_motion_dot": -5.6e-07,
        "meta_mean_motion_ddot": 0,
        "tle_line1": "1 26360U 00025A   25360.64325969 -.00000056  00000+0  00000+0 0  9994",
        "tle_line2": "2 26360  55.0535  26.2756 0038896 243.3079 173.8394  2.00566407187812"
      },
      "geometry": {
        "type": "Point",
        "coordinates": [
          90.1746403355464,
          52.103645559827996
        ]
      }
    },
    {
      "type": "Feature",
      "properties": {
        "norad_id": 26407,
        "name": "GPS BIIR-5  (PRN 22)",
        "group": "gnss",
        "lat": -54.73157025432276,
        "lon": 137.95287453360044,
        "alt_km": 19894.993262906264,
        "timestamp": "2025-12-27T03:58:44.397443+00:00",
        "meta_object_name": "GPS BIIR-5  (PRN 22)",
        "meta_object_id": "2000-040A",
        "meta_epoch": "2025-12-26T19:06:10.143072",
        "meta_mean_motion": 2.00568072,
        "meta_eccentricity": 0.0125259,
        "meta_inclination": 54.8878,
        "meta_ra_of_asc_node": 222.0099,
        "meta_arg_of_pericenter": 302.0267,
        "meta_mean_anomaly": 65.0853,
        "meta_ephemeris_type": 0,
        "meta_classification_type": "U",
        "meta_norad_cat_id": 26407,
        "meta_element_set_no": 999,
        "meta_rev_at_epoch": 18649,
        "meta_bstar": 0,
        "meta_mean_motion_dot": 7.6e-07,
        "meta_mean_motion_ddot": 0,
        "tle_line1": "1 26407U 00040A   25360.79595073  .00000076  00000+0  00000+0 0  9995",
        "tle_line2": "2 26407  54.8878 222.0099 0125259 302.0267  65.0853  2.00568072186494"
      },
      "geometry": {
        "type": "Point",
        "coordinates": [
          137.95287453360044,
          -54.73157025432276
        ]
      }
    },
    {
      "type": "Feature",
      "properties": {
        "norad_id": 27663,
        "name": "GPS BIIR-8  (PRN 16)",
        "group": "gnss",
        "lat": 38.847374182502385,
        "lon": -103.72468232740175,
        "alt_km": 19783.86583646861,
        "timestamp": "2025-12-27T03:58:44.397457+00:00",
        "meta_object_name": "GPS BIIR-8  (PRN 16)",
        "meta_object_id": "2003-005A",
        "meta_epoch": "2025-12-26T14:42:29.071008",
        "meta_mean_motion": 2.00570063,
        "meta_eccentricity": 0.0147921,
        "meta_inclination": 54.9204,
        "meta_ra_of_asc_node": 221.8264,
        "meta_arg_of_pericenter": 52.0033,
        "meta_mean_anomaly": 318.8923,
        "meta_ephemeris_type": 0,
        "meta_classification_type": "U",
        "meta_norad_cat_id": 27663,
        "meta_element_set_no": 999,
        "meta_rev_at_epoch": 16785,
        "meta_bstar": 0,
        "meta_mean_motion_dot": 7.5e-07,
        "meta_mean_motion_ddot": 0,
        "tle_line1": "1 27663U 03005A   25360.61283647  .00000075  00000+0  00000+0 0  9995",
        "tle_line2": "2 27663  54.9204 221.8264 0147921  52.0033 318.8923  2.00570063167856"
      },
      "geometry": {
        "type": "Point",
        "coordinates": [
          -103.72468232740175,
          38.847374182502385
        ]
      }
    },
    {
      "type": "Feature",
      "properties": {
        "norad_id": 28190,
        "name": "GPS BIIR-11 (PRN 19)",
        "group": "gnss",
        "lat": -23.544798157065042,
        "lon": 120.40202111653363,
        "alt_km": 19967.237308438584,
        "timestamp": "2025-12-27T03:58:44.397471+00:00",
        "meta_object_name": "GPS BIIR-11 (PRN 19)",
        "meta_object_id": "2004-009A",
        "meta_epoch": "2025-12-26T01:56:36.259872",
        "meta_mean_motion": 2.00560231,
        "meta_eccentricity": 0.01085974,
        "meta_inclination": 54.9736,
        "meta_ra_of_asc_node": 282.6813,
        "meta_arg_of_pericenter": 167.8637,
        "meta_mean_anomaly": 337.216,
        "meta_ephemeris_type": 0,
        "meta_classification_type": "U",
        "meta_norad_cat_id": 28190,
        "meta_element_set_no": 999,
        "meta_rev_at_epoch": 15947,
        "meta_bstar": 0,
        "meta_mean_motion_dot": -3e-07,
        "meta_mean_motion_ddot": 0,
        "tle_line1": "1 28190U 04009A   25360.08097523 -.00000030  00000+0  00000+0 0  9995",
        "tle_line2": "2 28190  54.9736 282.6813 0108597 167.8637 337.2160  2.00560231159471"
      },
      "geometry": {
        "type": "Point",
        "coordinates": [
          120.40202111653363,
          -23.544798157065042
        ]
      }
    },
    {
      "type": "Feature",
      "properties": {
        "norad_id": 28474,
        "name": "GPS BIIR-13 (PRN 02)",
        "group": "gnss",
        "lat": -55.157798829595954,
        "lon": -122.34756075486828,
        "alt_km": 19847.121914879448,
        "timestamp": "2025-12-27T03:58:44.397484+00:00",
        "meta_object_name": "GPS BIIR-13 (PRN 02)",
        "meta_object_id": "2004-045A",
        "meta_epoch": "2025-12-26T11:00:01.330272",
        "meta_mean_motion": 2.00570057,
        "meta_eccentricity": 0.0171007,
        "meta_inclination": 55.2338,
        "meta_ra_of_asc_node": 331.8542,
        "meta_arg_of_pericenter": 309.865,
        "meta_mean_anomaly": 168.2197,
        "meta_ephemeris_type": 0,
        "meta_classification_type": "U",
        "meta_norad_cat_id": 28474,
        "meta_element_set_no": 999,
        "meta_rev_at_epoch": 15496,
        "meta_bstar": 0,
        "meta_mean_motion_dot": -5.9e-07,
        "meta_mean_motion_ddot": 0,
        "tle_line1": "1 28474U 04045A   25360.45834873 -.00000059  00000+0  00000+0 0  9999",
        "tle_line2": "2 28474  55.2338 331.8542 0171007 309.8650 168.2197  2.00570057154961"
      },
      "geometry": {
        "type": "Point",
        "coordinates": [
          -122.34756075486828,
          -55.157798829595954
        ]
      }
    },
    {
      "type": "Feature",
      "properties": {
        "norad_id": 28874,
        "name": "GPS BIIRM-1 (PRN 17)",
        "group": "gnss",
        "lat": -36.742824715729135,
        "lon": 131.5820643187253,
        "alt_km": 20046.08952622422,
        "timestamp": "2025-12-27T03:58:44.397496+00:00",
        "meta_object_name": "GPS BIIRM-1 (PRN 17)",
        "meta_object_id": "2005-038A",
        "meta_epoch": "2025-12-24T20:45:31.120992",
        "meta_mean_motion": 2.00577585,
        "meta_eccentricity": 0.0131256,
        "meta_inclination": 55.0211,
        "meta_ra_of_asc_node": 280.2128,
        "meta_arg_of_pericenter": 293.8377,
        "meta_mean_anomaly": 72.9738,
        "meta_ephemeris_type": 0,
        "meta_classification_type": "U",
        "meta_norad_cat_id": 28874,
        "meta_element_set_no": 999,
        "meta_rev_at_epoch": 14834,
        "meta_bstar": 0,
        "meta_mean_motion_dot": -2.3e-07,
        "meta_mean_motion_ddot": 0,
        "tle_line1": "1 28874U 05038A   25358.86494353 -.00000023  00000+0  00000+0 0  9994",
        "tle_line2": "2 28874  55.0211 280.2128 0131256 293.8377  72.9738  2.00577585148340"
      },
      "geometry": {
        "type": "Point",
        "coordinates": [
          131.5820643187253,
          -36.742824715729135
        ]
      }
    }
  ]
}